satname,norad_id,inclination_deg,eccentricity,mean_motion_rev_per_day,perigee_km,apogee_km,l1,l2
STARLINK-1361,45567,53.0541,0.0001487,15.06413589,546.1401167860304,548.199703061041,1 45567U 20025AN  25295.55780133  .00012024  00000+0  82441-3 0  9991,2 45567  53.0541 346.7155 0001487  97.1753 262.9405 15.06413589304557
STARLINK-1363,45568,53.0554,0.0001116,15.27417522,482.7698940812852,484.3014194182724,1 45568U 20025AP  25295.91668980  .01706352  00000+0  56593-1 0  9999,2 45568  53.0554 344.5038 0001116 111.1501  30.2382 15.27417522  5793
STARLINK-1366,45569,53.0541,0.0001473,15.30783073,472.4654287698304,474.4839135681568,1 45569U 20025AQ  25295.91668980  .01805025  00000+0  53706-1 0  9990,2 45569  53.0541 344.0139 0001473  77.0862 251.6069 15.30783073  5649
STARLINK-1376,45570,53.055,0.0001446,15.06405123,546.1944535945395,548.1972598567054,1 45570U 20025AR  25295.42142780  .00007870  00000+0  54658-3 0  9993,2 45570  53.0550 347.3307 0001446  89.0011 271.1144 15.06405123304523
STARLINK-1320,45572,53.0582,0.0009699,15.40633648,437.62100298542555,450.8550460579936,1 45572U 20025AT  25295.32051558  .00060932  00000+0  14690-2 0  9995,2 45572  53.0582 293.4169 0009699 337.4733  22.5844 15.40633648305299
STARLINK-1321,45573,53.0549,0.0001234,15.06401258,546.3531148158754,548.0622898884167,1 45573U 20025AU  25295.40760419  .00006527  00000+0  45664-3 0  9994,2 45573  53.0549 337.3904 0001234  84.1625 275.9504 15.06401258304367
STARLINK-1328,45576,53.0522,0.0009886,15.64702561,367.4190692755128,380.7695810516261,1 45576U 20025AX  25295.91668980  .00199459  00000+0  19701-2 0  9992,2 45576  53.0522 315.0953 0009886   2.4952  47.6978 15.64702561  5930
STARLINK-1331,45578,53.0545,0.0001696,15.06410933,546.003516638083,548.3525835030678,1 45578U 20025AZ  25295.51818152  .00013164  00000+0  90075-3 0  9990,2 45578  53.0545 336.8953 0001696 101.7362 258.3817 15.06410933304690
STARLINK-1333,45580,53.0563,0.0001202,15.06365406,546.4851459537176,548.1500252360956,1 45580U 20025BB  25295.59099300  .00009670  00000+0  66782-3 0  9992,2 45580  53.0563 346.5663 0001202  58.9545 301.1562 15.06365406304551
STARLINK-1335,45581,53.0554,0.0001601,15.06410701,546.0700180552985,548.2875041620055,1 45581U 20025BC  25295.39654416  .00015346  00000+0  10466-2 0  9990,2 45581  53.0554 337.4428 0001601  71.5332 288.5831 15.06410701304666
STARLINK-1337,45582,53.0557,0.0001396,15.06393675,546.2641618552643,548.1977245850121,1 45582U 20025BD  25295.41863933 -.00000160  00000+0  81750-5 0  9996,2 45582  53.0557 337.3436 0001396  79.8236 280.2910 15.06393675304660
STARLINK-1347,45586,53.0541,0.0005885,15.29749515,472.52647704166793,480.5944559597392,1 45586U 20025BH  25295.37796181  .00074048  00000+0  25211-2 0  9997,2 45586  53.0541 324.5940 0005885 312.6636  47.3867 15.29749515304839
STARLINK-1360,45588,53.0458,0.0006089,15.73063022,346.05187921040033,354.2455855753078,1 45588U 20025BK  25295.12108170  .00116562  00000+0  82743-3 0  9999,2 45588  53.0458 247.3829 0006089  87.1885 272.9830 15.73063022305909
STARLINK-1364,45589,53.055,0.0001444,15.06395957,546.223927057631,548.2239712997543,1 45589U 20025BL  25295.42235059  .00007393  00000+0  51474-3 0  9998,2 45589  53.0550 337.3307 0001444  98.0449 262.0704 15.06395957304664
STARLINK-1365,45590,53.0562,0.0001509,15.06391503,546.1925611147362,548.2826391690578,1 45590U 20025BM  25295.50436014  .00003012  00000+0  22106-3 0  9997,2 45590  53.0562   6.9578 0001509 105.0226 255.0930 15.06391503304275
STARLINK-1443,45660,53.054,0.0001285,15.06412914,546.2820764672279,548.0618808747467,1 45660U 20035D   25295.48961259  .00012326  00000+0  84465-3 0  9991,2 45660  53.0540 327.0255 0001285  90.2076 269.9060 15.06412914297906
STARLINK-1446,45663,53.0283,8.37e-05,15.3260959,467.4568716990507,468.6029200374196,1 45663U 20035G   25295.26281678  .00066737  00000+0  20829-2 0  9998,2 45663  53.0283 292.7054 0000837 302.7685  57.3234 15.32609590298367
STARLINK-1448,45665,53.0542,0.0001344,15.06401892,546.2749931700037,548.1365253036865,1 45665U 20035J   25295.36060706  .00009769  00000+0  67379-3 0  9992,2 45665  53.0542 327.6009 0001344 103.1957 256.9182 15.06401892297874
STARLINK-1451,45668,53.0547,0.0001481,15.06404476,546.1721975871524,548.2234817666649,1 45668U 20035M   25295.36433162  .00011837  00000+0  81210-3 0  9994,2 45668  53.0547 327.9040 0001481 106.2232 253.8920 15.06404476297880
STARLINK-1452,45669,53.0408,0.0010203,15.25542328,482.15070908335747,496.16411005552527,1 45669U 20035N   25295.45548183  .00020743  00000+0  81727-3 0  9994,2 45669  53.0408 309.7033 0010203 343.8919  16.1752 15.25542328298143
STARLINK-1453,45670,53.0535,0.0001338,15.06398882,546.2883723538571,548.141596544895,1 45670U 20035P   25295.44076659  .00004636  00000+0  32991-3 0  9991,2 45670  53.0535 297.2454 0001338 100.8165 259.2974 15.06398882298203
STARLINK-1454,45671,53.0548,0.0001481,15.0640779,546.1620422276064,548.213323398656,1 45671U 20035Q   25295.38640764  .00011633  00000+0  79840-3 0  9998,2 45671  53.0548 327.4895 0001481  78.6466 281.4689 15.06407790297879
STARLINK-1456,45673,53.0543,0.0001478,15.06407178,546.1659952241098,548.2131217547985,1 45673U 20035S   25295.40115495  .00014200  00000+0  97009-3 0  9991,2 45673  53.0543 327.4252 0001478  79.3399 280.7756 15.06407178297891
STARLINK-1457,45674,53.0538,0.0001377,15.06406027,546.2394681600535,548.146704065769,1 45674U 20035T   25295.47486902  .00009696  00000+0  66878-3 0  9996,2 45674  53.0538 327.0900 0001377 109.8433 250.2704 15.06406027297873
STARLINK-1458,45675,53.0547,0.0001523,15.06401478,546.152298189375,548.26175798033,1 45675U 20035U   25295.39746350  .00010178  00000+0  70113-3 0  9998,2 45675  53.0547 327.4369 0001523 110.7909 249.3243 15.06401478297859
STARLINK-1460,45676,53.0539,0.0001415,15.06416312,546.181634711892,548.1414942056335,1 45676U 20035V   25295.50067211  .00015131  00000+0  10321-2 0  9992,2 45676  53.0539 326.9737 0001415  78.3593 281.7555 15.06416312297862
STARLINK-1392,45677,53.056,0.0001462,15.06390506,546.2281656204304,548.2531460469972,1 45677U 20035W   25295.37903005  .00003557  00000+0  25765-3 0  9996,2 45677  53.0560 327.5216 0001462  91.7048 268.4109 15.06390506297887
STARLINK-1394,45679,53.054,0.0001277,15.06404,546.3149330961878,548.0836639868339,1 45679U 20035Y   25295.44261286  .00008046  00000+0  55834-3 0  9992,2 45679  53.0540 317.2344 0001277  99.1050 261.0083 15.06404000298037
STARLINK-1402,45685,53.0529,0.0001773,15.20939214,501.7862884582901,504.22634187784934,1 45685U 20035AE  25295.91668980  .01065525  00000+0  44038-1 0  9991,2 45685  53.0529 308.9494 0001773  88.4705  95.5792 15.20939214  5740
STARLINK-1404,45686,53.0538,0.0001471,15.06404882,546.1778787799476,548.2153119237,1 45686U 20035AF  25295.33572728  .00010584  00000+0  72828-3 0  9996,2 45686  53.0538 317.7167 0001471  84.2596 275.8561 15.06404882298027
STARLINK-1413,45689,53.054,0.0001421,15.06396832,546.2371740092176,548.2053608288179,1 45689U 20035AJ  25295.48684591  .00004269  00000+0  30531-3 0  9995,2 45689  53.0540 317.0335 0001421  90.9840 269.1312 15.06396832297950
STARLINK-1417,45693,53.0543,0.0001554,15.06402354,546.1281452319654,548.2805413214555,1 45693U 20035AN  25295.35046597  .00007168  00000+0  49962-3 0  9993,2 45693  53.0543 317.6511 0001554 100.2837 259.8327 15.06402354298015
STARLINK-1420,45695,53.0533,0.0001498,15.06398269,546.1794452003396,548.2542812177562,1 45695U 20035AQ  25295.28501603  .00006990  00000+0  48771-3 0  9990,2 45695  53.0533 297.9314 0001498  81.4860 278.6299 15.06398269298296
STARLINK-1422,45696,53.0547,0.0001508,15.06386429,546.2088025761213,548.2975002457861,1 45696U 20035AR  25295.36152623  .00002162  00000+0  16406-3 0  9991,2 45696  53.0547 317.6009 0001508 101.2177 258.8982 15.06386429298011
STARLINK-1351,45697,53.0551,0.0001455,15.06391895,546.2287568778092,548.2440405368325,1 45697U 20035AS  25295.40390633  .00001831  00000+0  14182-3 0  9993,2 45697  53.0551 297.4076 0001455  98.9596 261.1558 15.06391895298316
STARLINK-1398,45699,53.0505,0.0002831,15.48814659,418.26785615767767,422.11707029975787,1 45699U 20035AU  25295.91668980  .00152350  00000+0  27409-2 0  9992,2 45699  53.0505 257.4260 0002831  66.4087 169.9188 15.48814659  5901
STARLINK-1400,45700,53.0552,0.0001608,15.06393174,546.1188793119745,548.3460781363319,1 45700U 20035AV  25295.31176415  .00000982  00000+0  84829-4 0  9990,2 45700  53.0552 297.8247 0001608  87.8379 272.2794 15.06393174298296
STARLINK-1403,45701,53.0542,0.000154,15.06393849,546.1639033503907,548.2969165126487,1 45701U 20035AW  25295.27489911  .00003615  00000+0  26152-3 0  9994,2 45701  53.0542 297.9876 0001540 101.0268 259.0895 15.06393849298289
STARLINK-1407,45703,53.0409,0.0011109,15.39611128,439.6760411803871,454.8407046198963,1 45703U 20035AY  25295.91668980  .00118666  00000+0  29260-2 0  9997,2 45703  53.0409 255.7934 0011109  23.3080 296.8451 15.39611128  5776
STARLINK-1411,45706,53.0526,0.0001976,15.3843408,449.3899264176125,452.0886983362634,1 45706U 20035BB  25295.91668980  .00147775  00000+0  37765-2 0  9992,2 45706  53.0526 282.8556 0001976  96.6061 205.4477 15.38434080  5866
STARLINK-1423,45710,53.0529,0.0001295,15.06396387,546.3257972127903,548.119465357292,1 45710U 20035BF  25295.30069968  .00004403  00000+0  31431-3 0  9996,2 45710  53.0529 297.8739 0001295  95.9593 264.1544 15.06396387298299
STARLINK-1433,45711,53.054,0.0001496,15.06398159,546.1811673555003,548.2532333322442,1 45711U 20035BG  25295.28227556  .00006617  00000+0  46271-3 0  9990,2 45711  53.0540 297.9530 0001496  86.4373 273.6787 15.06398159298289
STARLINK-1434,45712,53.0517,0.0004115,15.14585329,519.3982487176954,525.0772571393563,1 45712U 20035BH  25295.29817567  .00083140  00000+0  44168-2 0  9997,2 45712  53.0517 294.6014 0004115  28.0411 332.0803 15.14585329298343
